{
  "type": "FeatureCollection",
  "features": [
    {
      "type": "Feature",
      "properties": {
        "norad_id": 65729,
        "name": "DRAGONFLY",
        "group": "stations",
        "lat": 25.505373818090014,
        "lon": -13.930404646941446,
        "alt_km": 360.0010004494534,
        "timestamp": "2025-12-02T10:50:46.070891+00:00",
        "meta_object_name": "DRAGONFLY",
        "meta_object_id": "1998-067XH",
        "meta_epoch": "2025-12-01T23:30:55.050912",
        "meta_mean_motion": 15.67818176,
        "meta_eccentricity": 0.000649,
        "meta_inclination": 51.6258,
        "meta_ra_of_asc_node": 190.6875,
        "meta_arg_of_pericenter": 211.6531,
        "meta_mean_anomaly": 148.4075,
        "meta_ephemeris_type": 0,
        "meta_classification_type": "U",
        "meta_norad_cat_id": 65729,
        "meta_element_set_no": 999,
        "meta_rev_at_epoch": 1147,
        "meta_bstar": 0.0011889,
        "meta_mean_motion_dot": 0.00135201,
        "meta_mean_motion_ddot": 0,
        "tle_line1": "1 65729U 98067XH  25335.97980383  .00135201  00000+0  11889-2 0  9994",
        "tle_line2": "2 65729  51.6258 190.6875 0006490 211.6531 148.4075 15.67818176 11474"
      },
      "geometry": {
        "type": "Point",
        "coordinates": [
          -13.930404646941446,
          25.505373818090014
        ]
      }
    },
    {
      "type": "Feature",
      "properties": {
        "norad_id": 65730,
        "name": "1998-067XJ",
        "group": "stations",
        "lat": -9.092017072231004,
        "lon": 175.22411636549506,
        "alt_km": 225.133648430442,
        "timestamp": "2025-12-02T10:50:46.070902+00:00",
        "meta_object_name": "1998-067XJ",
        "meta_object_id": "1998-067XJ",
        "meta_epoch": "2025-12-01T20:03:18.916704",
        "meta_mean_motion": 16.13832998,
        "meta_eccentricity": 0.0010756,
        "meta_inclination": 51.6109,
        "meta_ra_of_asc_node": 185.8826,
        "meta_arg_of_pericenter": 242.801,
        "meta_mean_anomaly": 117.191,
        "meta_ephemeris_type": 0,
        "meta_classification_type": "U",
        "meta_norad_cat_id": 65730,
        "meta_element_set_no": 999,
        "meta_rev_at_epoch": 1152,
        "meta_bstar": 0.0027371,
        "meta_mean_motion_dot": 0.02710772,
        "meta_mean_motion_ddot": 0.014802,
        "tle_line1": "1 65730U 98067XJ  25335.83563561  .02710772  14802-1  27371-2 0  9990",
        "tle_line2": "2 65730  51.6109 185.8826 0010756 242.8010 117.1910 16.13832998 11528"
      },
      "geometry": {
        "type": "Point",
        "coordinates": [
          175.22411636549506,
          -9.092017072231004
        ]
      }
    },
    {
      "type": "Feature",
      "properties": {
        "norad_id": 65731,
        "name": "1998-067XK",
        "group": "stations",
        "lat": 7.503642896480419,
        "lon": -164.68010407318653,
        "alt_km": 381.8389165464696,
        "timestamp": "2025-12-02T10:50:46.070913+00:00",
        "meta_object_name": "1998-067XK",
        "meta_object_id": "1998-067XK",
        "meta_epoch": "2025-12-02T00:03:56.466432",
        "meta_mean_motion": 15.6322737,
        "meta_eccentricity": 0.0005955,
        "meta_inclination": 51.629,
        "meta_ra_of_asc_node": 191.6009,
        "meta_arg_of_pericenter": 184.5035,
        "meta_mean_anomaly": 175.5906,
        "meta_ephemeris_type": 0,
        "meta_classification_type": "U",
        "meta_norad_cat_id": 65731,
        "meta_element_set_no": 999,
        "meta_rev_at_epoch": 1146,
        "meta_bstar": 0.00092099,
        "meta_mean_motion_dot": 0.00086466,
        "meta_mean_motion_ddot": 0,
        "tle_line1": "1 65731U 98067XK  25336.00273688  .00086466  00000+0  92099-3 0  9996",
        "tle_line2": "2 65731  51.6290 191.6009 0005955 184.5035 175.5906 15.63227370 11464"
      },
      "geometry": {
        "type": "Point",
        "coordinates": [
          -164.68010407318653,
          7.503642896480419
        ]
      }
    },
    {
      "type": "Feature",
      "properties": {
        "norad_id": 65732,
        "name": "RSP-03",
        "group": "stations",
        "lat": -46.97164967671079,
        "lon": 66.91496660882727,
        "alt_km": 373.9638176154085,
        "timestamp": "2025-12-02T10:50:46.070924+00:00",
        "meta_object_name": "RSP-03",
        "meta_object_id": "1998-067XL",
        "meta_epoch": "2025-12-02T00:35:43.430208",
        "meta_mean_motion": 15.65401132,
        "meta_eccentricity": 0.0006817,
        "meta_inclination": 51.6275,
        "meta_ra_of_asc_node": 190.9915,
        "meta_arg_of_pericenter": 187.4004,
        "meta_mean_anomaly": 172.6892,
        "meta_ephemeris_type": 0,
        "meta_classification_type": "U",
        "meta_norad_cat_id": 65732,
        "meta_element_set_no": 999,
        "meta_rev_at_epoch": 1148,
        "meta_bstar": 0.0010736,
        "meta_mean_motion_dot": 0.00110336,
        "meta_mean_motion_ddot": 0,
        "tle_line1": "1 65732U 98067XL  25336.02480822  .00110336  00000+0  10736-2 0  9990",
        "tle_line2": "2 65732  51.6275 190.9915 0006817 187.4004 172.6892 15.65401132 11488"
      },
      "geometry": {
        "type": "Point",
        "coordinates": [
          66.91496660882727,
          -46.97164967671079
        ]
      }
    },
    {
      "type": "Feature",
      "properties": {
        "norad_id": 65733,
        "name": "GHS-01",
        "group": "stations",
        "lat": -21.971216371087333,
        "lon": 169.26047929258,
        "alt_km": 364.5576406624441,
        "timestamp": "2025-12-02T10:50:46.070934+00:00",
        "meta_object_name": "GHS-01",
        "meta_object_id": "1998-067XM",
        "meta_epoch": "2025-12-01T21:13:00.819264",
        "meta_mean_motion": 15.69713992,
        "meta_eccentricity": 0.0007058,
        "meta_inclination": 51.6283,
        "meta_ra_of_asc_node": 190.8036,
        "meta_arg_of_pericenter": 210.2396,
        "meta_mean_anomaly": 149.8194,
        "meta_ephemeris_type": 0,
        "meta_classification_type": "U",
        "meta_norad_cat_id": 65733,
        "meta_element_set_no": 999,
        "meta_rev_at_epoch": 1147,
        "meta_bstar": 0.0013342,
        "meta_mean_motion_dot": 0.00164761,
        "meta_mean_motion_ddot": 0,
        "tle_line1": "1 65733U 98067XM  25335.88403726  .00164761  00000+0  13342-2 0  9999",
        "tle_line2": "2 65733  51.6283 190.8036 0007058 210.2396 149.8194 15.69713992 11472"
      },
      "geometry": {
        "type": "Point",
        "coordinates": [
          169.26047929258,
          -21.971216371087333
        ]
      }
    },
    {
      "type": "Feature",
      "properties": {
        "norad_id": 65941,
        "name": "YOTSUBA-KULOVER",
        "group": "stations",
        "lat": -7.248667543998001,
        "lon": -174.16933902039108,
        "alt_km": 397.5340374613552,
        "timestamp": "2025-12-02T10:50:46.070947+00:00",
        "meta_object_name": "YOTSUBA-KULOVER",
        "meta_object_id": "1998-067XN",
        "meta_epoch": "2025-12-01T14:52:06.534912",
        "meta_mean_motion": 15.57565098,
        "meta_eccentricity": 0.00022157,
        "meta_inclination": 51.6287,
        "meta_ra_of_asc_node": 195.7889,
        "meta_arg_of_pericenter": 159.9481,
        "meta_mean_anomaly": 200.1599,
        "meta_ephemeris_type": 0,
        "meta_classification_type": "U",
        "meta_norad_cat_id": 65941,
        "meta_element_set_no": 999,
        "meta_rev_at_epoch": 812,
        "meta_bstar": 0.00079143347,
        "meta_mean_motion_dot": 0.00059437,
        "meta_mean_motion_ddot": 0,
        "tle_line1": "1 65941U 98067XN  25335.61952008  .00059437  00000+0  79143-3 0  9998",
        "tle_line2": "2 65941  51.6287 195.7889 0002215 159.9481 200.1599 15.57565098  8128"
      },
      "geometry": {
        "type": "Point",
        "coordinates": [
          -174.16933902039108,
          -7.248667543998001
        ]
      }
    },
    {
      "type": "Feature",
      "properties": {
        "norad_id": 65942,
        "name": "BOTAN",
        "group": "stations",
        "lat": -22.862082336128417,
        "lon": 30.674169765137265,
        "alt_km": 387.97030480675494,
        "timestamp": "2025-12-02T10:50:46.070958+00:00",
        "meta_object_name": "BOTAN",
        "meta_object_id": "1998-067XP",
        "meta_epoch": "2025-12-01T00:07:46.260192",
        "meta_mean_motion": 15.5994409,
        "meta_eccentricity": 0.00045874,
        "meta_inclination": 51.6292,
        "meta_ra_of_asc_node": 198.4381,
        "meta_arg_of_pericenter": 161.3348,
        "meta_mean_anomaly": 198.7814,
        "meta_ephemeris_type": 0,
        "meta_classification_type": "U",
        "meta_norad_cat_id": 65942,
        "meta_element_set_no": 999,
        "meta_rev_at_epoch": 803,
        "meta_bstar": 0.0010535817,
        "meta_mean_motion_dot": 0.00087116,
        "meta_mean_motion_ddot": 0,
        "tle_line1": "1 65942U 98067XP  25335.00539653  .00087116  00000+0  10536-2 0  9994",
        "tle_line2": "2 65942  51.6292 198.4381 0004587 161.3348 198.7814 15.59944090  8032"
      },
      "geometry": {
        "type": "Point",
        "coordinates": [
          30.674169765137265,
          -22.862082336128417
        ]
      }
    }
  ]
}